NORAD_CAT_ID,OBJECT_NAME,OBJECT_TYPE,EPOCH,MEAN_MOTION,ECCENTRICITY,INCLINATION,RA_OF_ASC_NODE,ARG_OF_PERICENTER,MEAN_ANOMALY,BSTAR,MEAN_MOTION_DOT,MEAN_MOTION_DDOT,TLE_LINE0,TLE_LINE1,TLE_LINE2,SEMIMAJOR_AXIS,PERIOD,APOGEE,PERIGEE,DECAYED
52670.0,STARLINK-4075,PAYLOAD,2022-08-23 14:00:01,15.08839934,0.0002416,53.2184,203.5887,49.9537,237.6371,-0.0022787,-0.00036373,0.0,0 STARLINK-4075,1 52670U 22053Q   22235.58334491 -.00036373  00000-0 -22787-2 0  9995,2 52670  53.2184 203.5887 0002416  49.9537 237.6371 15.08839934  1301,6917.880999999999,95.438,541.4169999999998,538.0740000000002,0.0
52670.0,STARLINK-4075,PAYLOAD,2022-08-23 22:00:01,15.08824123,0.0002358,53.2187,202.0915,54.9533,244.2781,0.0011171,0.00017528,0.0,0 STARLINK-4075,1 52670U 22053Q   22235.91668981  .00017528  00000-0  11171-2 0  9990,2 52670  53.2187 202.0915 0002358  54.9533 244.2781 15.08824123  1300,6917.929,95.439,541.425,538.163,0.0
52670.0,STARLINK-4075,PAYLOAD,2022-08-24 04:00:00,15.08832597,0.0002506999999999,53.2186,200.9709,51.3749,166.4811,-0.00092827,-0.00015029,0.0,0 STARLINK-4075,1 52670U 22053Q   22236.16667824 -.00015029  00000-0 -92827-3 0  9997,2 52670  53.2186 200.9709 0002507  51.3749 166.4811 15.08832597 15334,6917.903,95.438,541.502,538.034,0.0
52670.0,STARLINK-4075,PAYLOAD,2022-08-24 14:00:01,15.08846431,0.000245,53.2187,199.0998,52.2202,270.108,-0.0021761,-0.00034762,0.0,0 STARLINK-4075,1 52670U 22053Q   22236.58334491 -.00034762  00000-0 -21761-2 0  9997,2 52670  53.2187 199.0998 0002450  52.2202 270.1080 15.08846431  1309,6917.861,95.437,541.4209999999998,538.031,0.0
52670.0,STARLINK-4075,PAYLOAD,2022-08-24 22:00:00,15.08835571,0.000239,53.219,197.603,56.9271,276.9865,0.00065096,0.00010086,0.0,0 STARLINK-4075,1 52670U 22053Q   22236.91667824  .00010086  00000-0  65096-3 0  9994,2 52670  53.2190 197.6030 0002390  56.9271 276.9865 15.08835571 15442,6917.894,95.438,541.4119999999998,538.106,0.0
52670.0,STARLINK-4075,PAYLOAD,2022-08-25 14:00:01,15.08851712,0.000247,53.2187,194.6109,54.9383,302.1597,-0.0017832999999999,-0.00028568,0.0,0 STARLINK-4075,1 52670U 22053Q   22237.58334491 -.00028568  00000-0 -17833-2 0  9990,2 52670  53.2187 194.6109 0002470  54.9383 302.1597 15.08851712  1302,6917.845,95.437,541.418,538.001,0.0
52670.0,STARLINK-4075,PAYLOAD,2022-08-25 18:00:00,15.08820544,0.0002392,53.2187,193.8622,57.3065,125.5985,0.0024958,0.00039636,0.0,0 STARLINK-4075,1 52670U 22053Q   22237.75001157  .00039636  00000-0  24958-2 0  9991,2 52670  53.2187 193.8622 0002392  57.3065 125.5985 15.08820544 15571,6917.94,95.439,541.46,538.15,0.0
52670.0,STARLINK-4075,PAYLOAD,2022-08-25 22:00:00,15.08848282,0.0002427,53.219,193.1144,59.0826,309.6084,0.00017405,2.483e-05,0.0,0 STARLINK-4075,1 52670U 22053Q   22237.91667824  .00002483  00000-0  17405-3 0  9998,2 52670  53.2190 193.1144 0002427  59.0826 309.6084 15.08848282  1300,6917.855,95.437,541.399,538.0409999999998,0.0
52670.0,STARLINK-4075,PAYLOAD,2022-08-26 14:00:01,15.08855647,0.0002501999999999,53.2187,190.1221,57.6554,334.3031,-0.0012813,-0.00020632,0.0,0 STARLINK-4075,1 52670U 22053Q   22238.58335648 -.00020632  00000-0 -12813-2 0  9993,2 52670  53.2187 190.1221 0002502  57.6554 334.3031 15.08855647 15704,6917.833000000001,95.437,541.428,537.967,0.0
52670.0,STARLINK-4075,PAYLOAD,2022-08-26 22:00:00,15.08871156,0.0002455,53.2189,188.6258,60.507,342.9868,-0.0029065,-0.0004629,0.0,0 STARLINK-4075,1 52670U 22053Q   22238.91667824 -.00046290  00000-0 -29065-2 0  9999,2 52670  53.2189 188.6258 0002455  60.5070 342.9868 15.08871156  1308,6917.785,95.436,541.3480000000002,537.952,0.0
52670.0,STARLINK-4075,PAYLOAD,2022-08-27 14:00:01,15.08835362,0.0002458,53.2188,185.6334,58.5659,8.1245,-0.00075779,-0.00012327,0.0,0 STARLINK-4075,1 52670U 22053Q   22239.58334491 -.00012327  00000-0 -75779-3 0  9992,2 52670  53.2188 185.6334 0002458  58.5659   8.1245 15.08835362  1301,6917.895,95.438,541.46,538.059,0.0
52670.0,STARLINK-4075,PAYLOAD,2022-08-27 20:00:01,15.08826636,0.000246,53.2189,184.5107,61.7085,283.6703,0.0019114,0.00030252,0.0,0 STARLINK-4075,1 52670U 22053Q   22239.83334491  .00030252  00000-0  19114-2 0  9995,2 52670  53.2189 184.5107 0002460  61.7085 283.6703 15.08826636 15881,6917.920999999999,95.438,541.488,538.0840000000002,0.0
52670.0,STARLINK-4075,PAYLOAD,2022-08-27 22:00:00,15.08847709,0.0002491,53.2189,184.1371,61.3118,16.9581,-0.00048167,-7.948e-05,0.0,0 STARLINK-4075,1 52670U 22053Q   22239.91667824 -.00007948  00000-0 -48167-3 0  9992,2 52670  53.2189 184.1371 0002491  61.3118  16.9581 15.08847709  1304,6917.857,95.437,541.445,537.999,0.0
52670.0,STARLINK-4075,PAYLOAD,2022-08-28 14:00:01,15.08851751,0.0002503,53.2191,181.1446,59.8242,41.6486,-0.00029281,-4.947e-05,0.0,0 STARLINK-4075,1 52670U 22053Q   22240.58334491 -.00004947  00000-0 -29281-3 0  9990,2 52670  53.2191 181.1446 0002503  59.8242  41.6486 15.08851751 16005,6917.844,95.437,541.441,537.9780000000002,0.0
52670.0,STARLINK-4075,PAYLOAD,2022-08-28 22:00:00,15.08866371,0.000252,53.2192,179.6484,61.4882,51.5854,-0.0031629,-0.00050314,0.0,0 STARLINK-4075,1 52670U 22053Q   22240.91667824 -.00050314  00000-0 -31629-2 0  9993,2 52670  53.2192 179.6484 0002520  61.4882  51.5854 15.08866371  1308,6917.8,95.436,541.408,537.9209999999998,0.0
52670.0,STARLINK-4075,PAYLOAD,2022-08-29 14:00:01,15.08820318,0.0002419,53.2195,176.6558,58.9685,77.2993,-0.00081116,-0.00013168,0.0,0 STARLINK-4075,1 52670U 22053Q   22241.58334491 -.00013168  00000-0 -81116-3 0  9991,2 52670  53.2195 176.6558 0002419  58.9685  77.2993 15.08820318 16158,6917.941,95.439,541.479,538.132,0.0
52670.0,STARLINK-4075,PAYLOAD,2022-08-29 22:00:00,15.08832215,0.0002483,53.2197,175.1598,60.506,87.3223,-0.00093788,-0.00015181,0.0,0 STARLINK-4075,1 52670U 22053Q   22241.91667824 -.00015181  00000-0 -93788-3 0  9992,2 52670  53.2197 175.1598 0002483  60.5060  87.3223 15.08832215  1303,6917.904,95.438,541.487,538.0509999999998,0.0
52670.0,STARLINK-4075,PAYLOAD,2022-08-30 14:00:01,15.0881006,0.0002416,53.2198,172.1673,60.4544,110.4891,0.0010720999999999,0.00016802,0.0,0 STARLINK-4075,1 52670U 22053Q   22242.58334491  .00016802  00000-0  10721-2 0  9991,2 52670  53.2198 172.1673 0002416  60.4544 110.4891 15.08810060  1300,6917.972,95.439,541.508,538.1659999999998,0.0
52670.0,STARLINK-4075,PAYLOAD,2022-08-30 22:00:00,15.08840564,0.0002488,53.2199,170.6714,62.3581,120.1469,-0.00098244,-0.00015891,0.0,0 STARLINK-4075,1 52670U 22053Q   22242.91667824 -.00015891  00000-0 -98244-3 0  9993,2 52670  53.2199 170.6714 0002488  62.3581 120.1469 15.08840564 16353,6917.879,95.438,541.465,538.0219999999998,0.0
52670.0,STARLINK-4075,PAYLOAD,2022-08-31 14:00:01,15.08826558,0.0002455,53.2198,167.6786,62.684,142.9981,0.0015202,0.0002398,0.0,0 STARLINK-4075,1 52670U 22053Q   22243.58334491  .00023980  00000-0  15202-2 0  9996,2 52670  53.2198 167.6786 0002455  62.6840 142.9981 15.08826558  1309,6917.920999999999,95.438,541.485,538.0880000000002,0.0
52670.0,STARLINK-4075,PAYLOAD,2022-08-31 20:00:01,15.08849068,0.0002508999999999,53.2199,166.5564,65.2382,59.1294,0.00034513,5.21e-05,0.0,0 STARLINK-4075,1 52670U 22053Q   22243.83334491  .00005210  00000-0  34513-3 0  9997,2 52670  53.2199 166.5564 0002509  65.2382  59.1294 15.08849068 16495,6917.853,95.437,541.453,537.982,0.0
52670.0,STARLINK-4075,PAYLOAD,2022-08-31 22:00:00,15.08859767,0.0002532,53.2199,166.183,63.8711,153.3955,-0.001216,-0.000196,0.0,0 STARLINK-4075,1 52670U 22053Q   22243.91667824 -.00019600  00000-0 -12160-2 0  9998,2 52670  53.2199 166.1830 0002532  63.8711 153.3955 15.08859767  1305,6917.82,95.436,541.437,537.933,0.0
52670.0,STARLINK-4075,PAYLOAD,2022-09-01 14:00:01,15.08848307,0.0002444,53.2194,163.1897,65.0648,175.4892,0.00066177,0.00010262,0.0,0 STARLINK-4075,1 52670U 22053Q   22244.58335648  .00010262  00000-0  66177-3 0  9999,2 52670  53.2194 163.1897 0002444  65.0648 175.4892 15.08848307  1308,6917.855,95.437,541.411,538.029,0.0
52670.0,STARLINK-4075,PAYLOAD,2022-09-01 22:00:00,15.08862427,0.0002452,53.2194,161.6942,65.1401,186.9628,-0.0022674,-0.00036217,0.0,0 STARLINK-4075,1 52670U 22053Q   22244.91667824 -.00036217  00000-0 -22674-2 0  9993,2 52670  53.2194 161.6942 0002452  65.1401 186.9628 15.08862427 16656,6917.812,95.436,541.373,537.981,0.0
52670.0,STARLINK-4075,PAYLOAD,2022-09-02 12:00:02,15.08849595,0.0002392,53.2189,159.0752,65.4204,117.0447,-0.00089212,-0.00014463,0.0,0 STARLINK-4075,1 52670U 22053Q   22245.50002315 -.00014463  00000-0 -89212-3 0  9998,2 52670  53.2189 159.0752 0002392  65.4204 117.0447 15.08849595 16742,6917.851,95.437,541.371,538.061,0.0
52670.0,STARLINK-4075,PAYLOAD,2022-09-02 14:00:01,15.08833447,0.0002354,53.2189,158.7009,66.7159,208.5925,0.00094117,0.0001472,0.0,0 STARLINK-4075,1 52670U 22053Q   22245.58334491  .00014720  00000-0  94117-3 0  9993,2 52670  53.2189 158.7009 0002354  66.7159 208.5925 15.08833447  1306,6917.9,95.438,541.394,538.137,0.0
52670.0,STARLINK-4075,PAYLOAD,2022-09-02 22:00:01,15.08848458,0.0002384999999999,53.2188,157.2054,66.0539,220.913,-0.0023791999999999,-0.00037965,0.0,0 STARLINK-4075,1 52670U 22053Q   22245.91668981 -.00037965  00000-0 -23792-2 0  9992,2 52670  53.2188 157.2054 0002385  66.0539 220.9130 15.08848458  1302,6917.855,95.437,541.369,538.07,0.0
52670.0,STARLINK-4075,PAYLOAD,2022-09-03 14:00:01,15.08812621,0.0002325,53.2183,154.21200000000005,68.2295,241.8551,0.0028373,0.00045124,0.0,0 STARLINK-4075,1 52670U 22053Q   22246.58334491  .00045124  00000-0  28373-2 0  9996,2 52670  53.2183 154.2120 0002325  68.2295 241.8551 15.08812621 16909,6917.964,95.439,541.438,538.221,0.0
52670.0,STARLINK-4075,PAYLOAD,2022-09-03 22:00:00,15.08859421,0.0002411999999999,53.2184,152.7168,67.4939,254.1749,-0.0012854,-0.00020699,0.0,0 STARLINK-4075,1 52670U 22053Q   22246.91667824 -.00020699  00000-0 -12854-2 0  9991,2 52670  53.2184 152.7168 0002412  67.4939 254.1749 15.08859421  1301,6917.821,95.436,541.355,538.0169999999998,0.0
